[{"OBJECT_NAME":"GEESAT-5 11","OBJECT_ID":"2025-201L","EPOCH":"2026-03-09T16:20:00.938688","MEAN_MOTION":14.8375843,"ECCENTRICITY":0.00089326,"INCLINATION":49.9859,"RA_OF_ASC_NODE":140.356,"ARG_OF_PERICENTER":317.2651,"MEAN_ANOMALY":42.7591,"EPHEMERIS_TYPE":0,"CLASSIFICATION_TYPE":"U","NORAD_CAT_ID":65560,"ELEMENT_SET_NO":999,"REV_AT_EPOCH":2704,"BSTAR":0.00034705085,"MEAN_MOTION_DOT":2.678e-5,"MEAN_MOTION_DDOT":0},{"OBJECT_NAME":"CZ-4C R\/B","OBJECT_ID":"2021-062C","EPOCH":"2026-03-09T20:39:01.101024","MEAN_MOTION":14.57144512,"ECCENTRICITY":0.01313128,"INCLINATION":98.5282,"RA_OF_ASC_NODE":155.4869,"ARG_OF_PERICENTER":228.7661,"MEAN_ANOMALY":130.2162,"EPHEMERIS_TYPE":0,"CLASSIFICATION_TYPE":"U","NORAD_CAT_ID":49010,"ELEMENT_SET_NO":999,"REV_AT_EPOCH":24866,"BSTAR":0.00011816308,"MEAN_MOTION_DOT":5.42e-6,"MEAN_MOTION_DDOT":0}]
